[{"OBJECT_NAME":"STARLINK-1199","OBJECT_ID":"2020-012Z","EPOCH":"2026-03-09T06:13:25.788000","MEAN_MOTION":15.29352067,"ECCENTRICITY":0.00016231,"INCLINATION":53.1569,"RA_OF_ASC_NODE":25.8332,"ARG_OF_PERICENTER":88.0191,"MEAN_ANOMALY":272.0995,"EPHEMERIS_TYPE":0,"CLASSIFICATION_TYPE":"U","NORAD_CAT_ID":45201,"ELEMENT_SET_NO":999,"REV_AT_EPOCH":33509,"BSTAR":-5.8258613e-5,"MEAN_MOTION_DOT":-2.037e-5,"MEAN_MOTION_DDOT":0},{"OBJECT_NAME":"CZ-6A DEB","OBJECT_ID":"2024-140AAN","EPOCH":"2026-03-09T15:08:07.195776","MEAN_MOTION":15.20547394,"ECCENTRICITY":0.0064261,"INCLINATION":89.3669,"RA_OF_ASC_NODE":306.3092,"ARG_OF_PERICENTER":93.6352,"MEAN_ANOMALY":267.2246,"EPHEMERIS_TYPE":0,"CLASSIFICATION_TYPE":"U","NORAD_CAT_ID":61480,"ELEMENT_SET_NO":999,"REV_AT_EPOCH":8198,"BSTAR":0.0033609,"MEAN_MOTION_DOT":0.00078405,"MEAN_MOTION_DDOT":0}]
